[{"OBJECT_NAME":"STARLINK-32331","OBJECT_ID":"2024-191C","EPOCH":"2025-09-06T22:31:37.543008","MEAN_MOTION":15.27576358,"ECCENTRICITY":8.972e-5,"INCLINATION":43.0016,"RA_OF_ASC_NODE":115.7399,"ARG_OF_PERICENTER":254.9048,"MEAN_ANOMALY":105.1705,"EPHEMERIS_TYPE":0,"CLASSIFICATION_TYPE":"U","NORAD_CAT_ID":61623,"ELEMENT_SET_NO":999,"REV_AT_EPOCH":4939,"BSTAR":1.1701265e-5,"MEAN_MOTION_DOT":6.0e-7,"MEAN_MOTION_DDOT":0},{"OBJECT_NAME":"STARLINK-32398","OBJECT_ID":"2024-191D","EPOCH":"2025-09-06T08:23:03.234336","MEAN_MOTION":15.27577937,"ECCENTRICITY":0.00010194,"INCLINATION":43.0012,"RA_OF_ASC_NODE":115.5841,"ARG_OF_PERICENTER":293.3575,"MEAN_ANOMALY":66.7169,"EPHEMERIS_TYPE":0,"CLASSIFICATION_TYPE":"U","NORAD_CAT_ID":61624,"ELEMENT_SET_NO":999,"REV_AT_EPOCH":4934,"BSTAR":0.00013868588,"MEAN_MOTION_DOT":3.556e-5,"MEAN_MOTION_DDOT":0},{"OBJECT_NAME":"STARLINK-32365","OBJECT_ID":"2024-191E","EPOCH":"2025-09-06T22:02:42.034848","MEAN_MOTION":15.27602753,"ECCENTRICITY":0.00021766,"INCLINATION":43.0018,"RA_OF_ASC_NODE":112.1145,"ARG_OF_PERICENTER":265.3073,"MEAN_ANOMALY":94.753,"EPHEMERIS_TYPE":0,"CLASSIFICATION_TYPE":"U","NORAD_CAT_ID":61625,"ELEMENT_SET_NO":999,"REV_AT_EPOCH":4943,"BSTAR":-0.00011519804,"MEAN_MOTION_DOT":-3.433e-5,"MEAN_MOTION_DDOT":0},{"OBJECT_NAME":"STARLINK-32333","OBJECT_ID":"2024-191F","EPOCH":"2025-09-06T08:40:52.678848","MEAN_MOTION":15.27558828,"ECCENTRICITY":0.00012457,"INCLINATION":43.0053,"RA_OF_ASC_NODE":119.1456,"ARG_OF_PERICENTER":284.6908,"MEAN_ANOMALY":75.3806,"EPHEMERIS_TYPE":0,"CLASSIFICATION_TYPE":"U","NORAD_CAT_ID":61626,"ELEMENT_SET_NO":999,"REV_AT_EPOCH":4930,"BSTAR":0.00016891278,"MEAN_MOTION_DOT":4.386e-5,"MEAN_MOTION_DDOT":0},{"OBJECT_NAME":"STARLINK-32399","OBJECT_ID":"2024-191G","EPOCH":"2025-09-06T21:32:39.413760","MEAN_MOTION":15.27585353,"ECCENTRICITY":0.0001274,"INCLINATION":42.9978,"RA_OF_ASC_NODE":105.0244,"ARG_OF_PERICENTER":287.9815,"MEAN_ANOMALY":72.0898,"EPHEMERIS_TYPE":0,"CLASSIFICATION_TYPE":"U","NORAD_CAT_ID":61627,"ELEMENT_SET_NO":999,"REV_AT_EPOCH":4951,"BSTAR":-7.7696725e-5,"MEAN_MOTION_DOT":-2.4e-5,"MEAN_MOTION_DDOT":0},{"OBJECT_NAME":"STARLINK-32421","OBJECT_ID":"2024-191H","EPOCH":"2025-09-06T08:32:17.581056","MEAN_MOTION":15.2758452,"ECCENTRICITY":0.00034106,"INCLINATION":43.0055,"RA_OF_ASC_NODE":115.6346,"ARG_OF_PERICENTER":269.1049,"MEAN_ANOMALY":90.9412,"EPHEMERIS_TYPE":0,"CLASSIFICATION_TYPE":"U","NORAD_CAT_ID":61628,"ELEMENT_SET_NO":999,"REV_AT_EPOCH":4934,"BSTAR":0.0002084101,"MEAN_MOTION_DOT":5.478e-5,"MEAN_MOTION_DDOT":0},{"OBJECT_NAME":"STARLINK-32403","OBJECT_ID":"2024-191J","EPOCH":"2025-09-06T08:17:31.155072","MEAN_MOTION":15.27576076,"ECCENTRICITY":9.947e-5,"INCLINATION":42.9938,"RA_OF_ASC_NODE":115.5568,"ARG_OF_PERICENTER":44.5167,"MEAN_ANOMALY":315.5764,"EPHEMERIS_TYPE":0,"CLASSIFICATION_TYPE":"U","NORAD_CAT_ID":61629,"ELEMENT_SET_NO":999,"REV_AT_EPOCH":4934,"BSTAR":0.00020031976,"MEAN_MOTION_DOT":5.254e-5,"MEAN_MOTION_DDOT":0},{"OBJECT_NAME":"STARLINK-32390","OBJECT_ID":"2024-191K","EPOCH":"2025-09-06T21:16:40.067040","MEAN_MOTION":15.27572028,"ECCENTRICITY":0.00014962,"INCLINATION":43.0039,"RA_OF_ASC_NODE":112.7356,"ARG_OF_PERICENTER":286.9559,"MEAN_ANOMALY":73.1129,"EPHEMERIS_TYPE":0,"CLASSIFICATION_TYPE":"U","NORAD_CAT_ID":61630,"ELEMENT_SET_NO":999,"REV_AT_EPOCH":4942,"BSTAR":-7.824528e-6,"MEAN_MOTION_DOT":-4.77e-6,"MEAN_MOTION_DDOT":0},{"OBJECT_NAME":"STARLINK-32348","OBJECT_ID":"2024-191L","EPOCH":"2025-09-06T08:29:45.918816","MEAN_MOTION":15.27580829,"ECCENTRICITY":0.00010345,"INCLINATION":42.9945,"RA_OF_ASC_NODE":119.0891,"ARG_OF_PERICENTER":305.9332,"MEAN_ANOMALY":54.1424,"EPHEMERIS_TYPE":0,"CLASSIFICATION_TYPE":"U","NORAD_CAT_ID":61631,"ELEMENT_SET_NO":999,"REV_AT_EPOCH":4930,"BSTAR":6.08669e-5,"MEAN_MOTION_DOT":1.413e-5,"MEAN_MOTION_DDOT":0},{"OBJECT_NAME":"STARLINK-32455","OBJECT_ID":"2024-191M","EPOCH":"2025-09-06T21:25:13.456704","MEAN_MOTION":15.27578881,"ECCENTRICITY":0.00018473,"INCLINATION":43.0044,"RA_OF_ASC_NODE":116.248,"ARG_OF_PERICENTER":273.8624,"MEAN_ANOMALY":86.2016,"EPHEMERIS_TYPE":0,"CLASSIFICATION_TYPE":"U","NORAD_CAT_ID":61632,"ELEMENT_SET_NO":999,"REV_AT_EPOCH":4938,"BSTAR":1.1001823e-5,"MEAN_MOTION_DOT":4.0e-7,"MEAN_MOTION_DDOT":0},{"OBJECT_NAME":"STARLINK-32396","OBJECT_ID":"2024-191N","EPOCH":"2025-09-06T08:35:19.752864","MEAN_MOTION":15.27560845,"ECCENTRICITY":9.065e-5,"INCLINATION":43.0004,"RA_OF_ASC_NODE":119.1188,"ARG_OF_PERICENTER":9.3493,"MEAN_ANOMALY":350.7375,"EPHEMERIS_TYPE":0,"CLASSIFICATION_TYPE":"U","NORAD_CAT_ID":61633,"ELEMENT_SET_NO":999,"REV_AT_EPOCH":4930,"BSTAR":9.1830303e-5,"MEAN_MOTION_DOT":2.264e-5,"MEAN_MOTION_DDOT":0},{"OBJECT_NAME":"STARLINK-32355","OBJECT_ID":"2024-191P","EPOCH":"2025-09-06T21:28:55.699968","MEAN_MOTION":15.27588617,"ECCENTRICITY":0.00012486,"INCLINATION":43.0037,"RA_OF_ASC_NODE":116.2672,"ARG_OF_PERICENTER":293.4152,"MEAN_ANOMALY":66.6568,"EPHEMERIS_TYPE":0,"CLASSIFICATION_TYPE":"U","NORAD_CAT_ID":61634,"ELEMENT_SET_NO":999,"REV_AT_EPOCH":4938,"BSTAR":-5.4688578e-5,"MEAN_MOTION_DOT":-1.767e-5,"MEAN_MOTION_DDOT":0},{"OBJECT_NAME":"STARLINK-32370","OBJECT_ID":"2024-191Q","EPOCH":"2025-09-06T21:53:27.860928","MEAN_MOTION":15.27576687,"ECCENTRICITY":0.00017445,"INCLINATION":43.0002,"RA_OF_ASC_NODE":112.0665,"ARG_OF_PERICENTER":279.6489,"MEAN_ANOMALY":80.4165,"EPHEMERIS_TYPE":0,"CLASSIFICATION_TYPE":"U","NORAD_CAT_ID":61635,"ELEMENT_SET_NO":999,"REV_AT_EPOCH":4943,"BSTAR":1.8756149e-5,"MEAN_MOTION_DOT":2.54e-6,"MEAN_MOTION_DDOT":0},{"OBJECT_NAME":"STARLINK-32405","OBJECT_ID":"2024-191R","EPOCH":"2025-09-06T21:34:28.418592","MEAN_MOTION":15.27585389,"ECCENTRICITY":0.00015313,"INCLINATION":43.004,"RA_OF_ASC_NODE":116.2962,"ARG_OF_PERICENTER":285.3598,"MEAN_ANOMALY":74.7085,"EPHEMERIS_TYPE":0,"CLASSIFICATION_TYPE":"U","NORAD_CAT_ID":61636,"ELEMENT_SET_NO":999,"REV_AT_EPOCH":4938,"BSTAR":0.00015346882,"MEAN_MOTION_DOT":3.964e-5,"MEAN_MOTION_DDOT":0},{"OBJECT_NAME":"STARLINK-32419","OBJECT_ID":"2024-191S","EPOCH":"2025-09-06T21:11:06.806688","MEAN_MOTION":15.27582755,"ECCENTRICITY":5.739e-5,"INCLINATION":43.0006,"RA_OF_ASC_NODE":112.7059,"ARG_OF_PERICENTER":137.7706,"MEAN_ANOMALY":222.319,"EPHEMERIS_TYPE":0,"CLASSIFICATION_TYPE":"U","NORAD_CAT_ID":61637,"ELEMENT_SET_NO":999,"REV_AT_EPOCH":4942,"BSTAR":-4.0034944e-5,"MEAN_MOTION_DOT":-1.363e-5,"MEAN_MOTION_DDOT":0},{"OBJECT_NAME":"STARLINK-32320","OBJECT_ID":"2024-191T","EPOCH":"2025-09-06T21:40:01.306560","MEAN_MOTION":15.2758853,"ECCENTRICITY":0.00010722,"INCLINATION":43.0006,"RA_OF_ASC_NODE":116.3203,"ARG_OF_PERICENTER":276.7949,"MEAN_ANOMALY":83.2781,"EPHEMERIS_TYPE":0,"CLASSIFICATION_TYPE":"U","NORAD_CAT_ID":61638,"ELEMENT_SET_NO":999,"REV_AT_EPOCH":4938,"BSTAR":3.032819e-5,"MEAN_MOTION_DOT":5.73e-6,"MEAN_MOTION_DDOT":0}]
