STARLINK-32331          
1 61623U 24191C   25249.93862897  .00000060  00000+0  11701-4 0  9998
2 61623  43.0016 115.7399 0000897 254.9048 105.1705 15.27576358 49398
STARLINK-32398          
1 61624U 24191D   25249.34934299  .00003556  00000+0  13869-3 0  9999
2 61624  43.0012 115.5841 0001019 293.3575  66.7169 15.27577937 49349
STARLINK-32365          
1 61625U 24191E   25249.91854207 -.00003433  00000+0 -11520-3 0  9991
2 61625  43.0018 112.1145 0002176 265.3073  94.7530 15.27602753 49431
STARLINK-32333          
1 61626U 24191F   25249.36172082  .00004386  00000+0  16891-3 0  9997
2 61626  43.0053 119.1456 0001245 284.6908  75.3806 15.27558828 49300
STARLINK-32399          
1 61627U 24191G   25249.89767840 -.00002400  00000+0 -77697-4 0  9997
2 61627  42.9978 105.0244 0001274 287.9815  72.0898 15.27585353 49510
STARLINK-32421          
1 61628U 24191H   25249.35575904  .00005478  00000+0  20841-3 0  9991
2 61628  43.0055 115.6346 0003410 269.1049  90.9412 15.27584520 49341
STARLINK-32403          
1 61629U 24191J   25249.34549948  .00005254  00000+0  20032-3 0  9994
2 61629  42.9938 115.5568 0000994  44.5167 315.5764 15.27576076 49348
STARLINK-32390          
1 61630U 24191K   25249.88657485 -.00000477  00000+0 -78245-5 0  9996
2 61630  43.0039 112.7356 0001496 286.9559  73.1129 15.27572028 49427
STARLINK-32348          
1 61631U 24191L   25249.35400369  .00001413  00000+0  60867-4 0  9995
2 61631  42.9945 119.0891 0001034 305.9332  54.1424 15.27580829 49307
STARLINK-32455          
1 61632U 24191M   25249.89251686  .00000040  00000+0  11002-4 0  9993
2 61632  43.0044 116.2480 0001847 273.8624  86.2016 15.27578881 49388
STARLINK-32396          
1 61633U 24191N   25249.35786751  .00002264  00000+0  91830-4 0  9998
2 61633  43.0004 119.1188 0000906   9.3493 350.7375 15.27560845 49303
STARLINK-32355          
1 61634U 24191P   25249.89508912 -.00001767  00000+0 -54689-4 0  9999
2 61634  43.0037 116.2672 0001248 293.4152  66.6568 15.27588617 49386
STARLINK-32370          
1 61635U 24191Q   25249.91212802  .00000254  00000+0  18756-4 0  9996
2 61635  43.0002 112.0665 0001744 279.6489  80.4165 15.27576687 49432
STARLINK-32405          
1 61636U 24191R   25249.89894003  .00003964  00000+0  15347-3 0  9996
2 61636  43.0040 116.2962 0001531 285.3598  74.7085 15.27585389 49380
STARLINK-32419          
1 61637U 24191S   25249.88271767 -.00001363  00000+0 -40035-4 0  9998
2 61637  43.0006 112.7059 0000573 137.7706 222.3190 15.27582755 49424
STARLINK-32320          
1 61638U 24191T   25249.90279290  .00000573  00000+0  30328-4 0  9995
2 61638  43.0006 116.3203 0001072 276.7949  83.2781 15.27588530 49386
